{
  "type": "FeatureCollection",
  "features": [
    {
      "type": "Feature",
      "properties": {
        "norad_id": 37781,
        "name": "HAIYANG-2A",
        "group": "resource",
        "lat": -56.050943878546526,
        "lon": 152.18237053878605,
        "alt_km": 976.1010849479426,
        "timestamp": "2025-12-11T08:58:26.771018+00:00",
        "meta_object_name": "HAIYANG-2A",
        "meta_object_id": "2011-043A",
        "meta_epoch": "2025-12-11T04:20:40.342272",
        "meta_mean_motion": 13.78835787,
        "meta_eccentricity": 0.0001675,
        "meta_inclination": 99.338,
        "meta_ra_of_asc_node": 346.1392,
        "meta_arg_of_pericenter": 84.6844,
        "meta_mean_anomaly": 275.4498,
        "meta_ephemeris_type": 0,
        "meta_classification_type": "U",
        "meta_norad_cat_id": 37781,
        "meta_element_set_no": 999,
        "meta_rev_at_epoch": 72077,
        "meta_bstar": 0.00028509,
        "meta_mean_motion_dot": 2.46e-06,
        "meta_mean_motion_ddot": 0,
        "tle_line1": "1 37781U 11043A   25345.18102248  .00000246  00000+0  28509-3 0  9998",
        "tle_line2": "2 37781  99.3380 346.1392 0001675  84.6844 275.4498 13.78835787720770"
      },
      "geometry": {
        "type": "Point",
        "coordinates": [
          152.18237053878605,
          -56.050943878546526
        ]
      }
    },
    {
      "type": "Feature",
      "properties": {
        "norad_id": 37791,
        "name": "RASAT",
        "group": "resource",
        "lat": -79.69665319372858,
        "lon": 125.90886982322847,
        "alt_km": 688.7959015081387,
        "timestamp": "2025-12-11T08:58:26.771028+00:00",
        "meta_object_name": "RASAT",
        "meta_object_id": "2011-044D",
        "meta_epoch": "2025-12-11T06:08:40.384608",
        "meta_mean_motion": 14.67906349,
        "meta_eccentricity": 0.0021896,
        "meta_inclination": 98.0649,
        "meta_ra_of_asc_node": 74.5355,
        "meta_arg_of_pericenter": 69.4201,
        "meta_mean_anomaly": 304.4833,
        "meta_ephemeris_type": 0,
        "meta_classification_type": "U",
        "meta_norad_cat_id": 37791,
        "meta_element_set_no": 999,
        "meta_rev_at_epoch": 76561,
        "meta_bstar": 0.00018545,
        "meta_mean_motion_dot": 1.015e-05,
        "meta_mean_motion_ddot": 0,
        "tle_line1": "1 37791U 11044D   25345.25602297  .00001015  00000+0  18545-3 0  9991",
        "tle_line2": "2 37791  98.0649  74.5355 0021896  69.4201 304.4833 14.67906349765611"
      },
      "geometry": {
        "type": "Point",
        "coordinates": [
          125.90886982322847,
          -79.69665319372858
        ]
      }
    },
    {
      "type": "Feature",
      "properties": {
        "norad_id": 37841,
        "name": "SRMSAT",
        "group": "resource",
        "lat": -12.909173339828309,
        "lon": 77.08704828576964,
        "alt_km": 845.4849060383694,
        "timestamp": "2025-12-11T08:58:26.771039+00:00",
        "meta_object_name": "SRMSAT",
        "meta_object_id": "2011-058D",
        "meta_epoch": "2025-12-10T16:20:28.552992",
        "meta_mean_motion": 14.11510466,
        "meta_eccentricity": 0.00117159,
        "meta_inclination": 19.9705,
        "meta_ra_of_asc_node": 120.4116,
        "meta_arg_of_pericenter": 290.6404,
        "meta_mean_anomaly": 99.2293,
        "meta_ephemeris_type": 0,
        "meta_classification_type": "U",
        "meta_norad_cat_id": 37841,
        "meta_element_set_no": 999,
        "meta_rev_at_epoch": 73115,
        "meta_bstar": 0.00014227219,
        "meta_mean_motion_dot": 5.27e-06,
        "meta_mean_motion_ddot": 0,
        "tle_line1": "1 37841U 11058D   25344.68088603  .00000527  00000+0  14227-3 0  9997",
        "tle_line2": "2 37841  19.9705 120.4116 0011715 290.6404  99.2293 14.11510466731151"
      },
      "geometry": {
        "type": "Point",
        "coordinates": [
          77.08704828576964,
          -12.909173339828309
        ]
      }
    },
    {
      "type": "Feature",
      "properties": {
        "norad_id": 38012,
        "name": "PLEIADES 1A",
        "group": "resource",
        "lat": 61.266527363551894,
        "lon": -106.62262252993276,
        "alt_km": 691.2014352511223,
        "timestamp": "2025-12-11T08:58:26.771049+00:00",
        "meta_object_name": "PLEIADES 1A",
        "meta_object_id": "2011-076F",
        "meta_epoch": "2025-12-11T05:26:30.964128",
        "meta_mean_motion": 14.58558683,
        "meta_eccentricity": 0.0001299,
        "meta_inclination": 98.182,
        "meta_ra_of_asc_node": 58.0181,
        "meta_arg_of_pericenter": 74.3062,
        "meta_mean_anomaly": 350.9479,
        "meta_ephemeris_type": 0,
        "meta_classification_type": "U",
        "meta_norad_cat_id": 38012,
        "meta_element_set_no": 999,
        "meta_rev_at_epoch": 74459,
        "meta_bstar": 0.00012785,
        "meta_mean_motion_dot": 5.49e-06,
        "meta_mean_motion_ddot": 0,
        "tle_line1": "1 38012U 11076F   25345.22674727  .00000549  00000+0  12785-3 0  9998",
        "tle_line2": "2 38012  98.1820  58.0181 0001299  74.3062 350.9479 14.58558683744599"
      },
      "geometry": {
        "type": "Point",
        "coordinates": [
          -106.62262252993276,
          61.266527363551894
        ]
      }
    },
    {
      "type": "Feature",
      "properties": {
        "norad_id": 38038,
        "name": "ZIYUAN 1-02C (ZY 1-02C)",
        "group": "resource",
        "lat": 52.877381536845434,
        "lon": -117.28478770511533,
        "alt_km": 755.2305207122836,
        "timestamp": "2025-12-11T08:58:26.771060+00:00",
        "meta_object_name": "ZIYUAN 1-02C (ZY 1-02C)",
        "meta_object_id": "2011-079A",
        "meta_epoch": "2025-12-11T05:24:09.975744",
        "meta_mean_motion": 14.38008929,
        "meta_eccentricity": 0.0007099,
        "meta_inclination": 98.433,
        "meta_ra_of_asc_node": 51.2663,
        "meta_arg_of_pericenter": 142.5133,
        "meta_mean_anomaly": 293.8343,
        "meta_ephemeris_type": 0,
        "meta_classification_type": "U",
        "meta_norad_cat_id": 38038,
        "meta_element_set_no": 999,
        "meta_rev_at_epoch": 73219,
        "meta_bstar": 0.00022438,
        "meta_mean_motion_dot": 6.36e-06,
        "meta_mean_motion_ddot": 0,
        "tle_line1": "1 38038U 11079A   25345.22511546  .00000636  00000+0  22438-3 0  9991",
        "tle_line2": "2 38038  98.4330  51.2663 0007099 142.5133 293.8343 14.38008929732196"
      },
      "geometry": {
        "type": "Point",
        "coordinates": [
          -117.28478770511533,
          52.877381536845434
        ]
      }
    },
    {
      "type": "Feature",
      "properties": {
        "norad_id": 38046,
        "name": "ZIYUAN 3-1 (ZY 3-1)",
        "group": "resource",
        "lat": 1.2352918515491986,
        "lon": 51.603219024778234,
        "alt_km": 365.54933202631946,
        "timestamp": "2025-12-11T08:58:26.771070+00:00",
        "meta_object_name": "ZIYUAN 3-1 (ZY 3-1)",
        "meta_object_id": "2012-001A",
        "meta_epoch": "2025-12-11T04:22:28.889184",
        "meta_mean_motion": 15.68251652,
        "meta_eccentricity": 0.0001837,
        "meta_inclination": 97.1754,
        "meta_ra_of_asc_node": 51.5628,
        "meta_arg_of_pericenter": 358.7864,
        "meta_mean_anomaly": 1.3393,
        "meta_ephemeris_type": 0,
        "meta_classification_type": "U",
        "meta_norad_cat_id": 38046,
        "meta_element_set_no": 999,
        "meta_rev_at_epoch": 77472,
        "meta_bstar": 0.00090208,
        "meta_mean_motion_dot": 0.00101697,
        "meta_mean_motion_ddot": 0,
        "tle_line1": "1 38046U 12001A   25345.18227881  .00101697  00000+0  90208-3 0  9996",
        "tle_line2": "2 38046  97.1754  51.5628 0001837 358.7864   1.3393 15.68251652774720"
      },
      "geometry": {
        "type": "Point",
        "coordinates": [
          51.603219024778234,
          1.2352918515491986
        ]
      }
    },
    {
      "type": "Feature",
      "properties": {
        "norad_id": 38338,
        "name": "ARIRANG-3 (KOMPSAT-3)",
        "group": "resource",
        "lat": -0.5936606808415871,
        "lon": -59.9599283533491,
        "alt_km": 687.0096723963889,
        "timestamp": "2025-12-11T08:58:26.771081+00:00",
        "meta_object_name": "ARIRANG-3 (KOMPSAT-3)",
        "meta_object_id": "2012-025B",
        "meta_epoch": "2025-12-11T04:02:53.460384",
        "meta_mean_motion": 14.6170926,
        "meta_eccentricity": 0.0005467,
        "meta_inclination": 98.332,
        "meta_ra_of_asc_node": 299.7463,
        "meta_arg_of_pericenter": 343.9295,
        "meta_mean_anomaly": 16.1731,
        "meta_ephemeris_type": 0,
        "meta_classification_type": "U",
        "meta_norad_cat_id": 38338,
        "meta_element_set_no": 999,
        "meta_rev_at_epoch": 72387,
        "meta_bstar": 0.00019839,
        "meta_mean_motion_dot": 9.4e-06,
        "meta_mean_motion_ddot": 0,
        "tle_line1": "1 38338U 12025B   25345.16867431  .00000940  00000+0  19839-3 0  9995",
        "tle_line2": "2 38338  98.3320 299.7463 0005467 343.9295  16.1731 14.61709260723871"
      },
      "geometry": {
        "type": "Point",
        "coordinates": [
          -59.9599283533491,
          -0.5936606808415871
        ]
      }
    }
  ]
}